{"Germany_10":[{"greeter_page":"https://internationalgreeter.org/destinations/luebeck","image_url":"https://internationalgreeter.org/wp-content/uploads/ninja-forms/12/Lubeck_featured_image-1-scaled.png","place_id":"Germany_10","place_name":"Lubeck","lat":"53.86767","lon":"10.669737"}],"Germany_7":[{"greeter_page":"https://internationalgreeter.org/destinations/hamburg","image_url":"https://internationalgreeter.org/wp-content/uploads/2016/02/Modrow_Landungsbruecken_junge_leute-scaled.jpg","place_id":"Germany_7","place_name":"Hamburg","lat":"53.55711","lon":"9.997434"}],"Germany_34":[{"greeter_page":"https://internationalgreeter.org/destinations/bremen","image_url":"https://internationalgreeter.org/wp-content/uploads/2016/02/DSCN1272.jpg","place_id":"Germany_34","place_name":"Bremen","lat":"53.082179","lon":"8.810576"}],"Germany_1":[{"greeter_page":"https://internationalgreeter.org/destinations/berlin","image_url":"https://internationalgreeter.org/wp-content/uploads/2016/02/Berlin-1-scaled.jpg","place_id":"Germany_1","place_name":"Berlin","lat":"52.520501","lon":"13.386988"}],"Germany_63":[{"greeter_page":"https://internationalgreeter.org/destinations/gorlitz","image_url":"https://internationalgreeter.org/wp-content/uploads/2020/02/Goerlitz_Greeter_Cover.jpg","place_id":"Germany_63","place_name":"Görlitz","lat":"51.148253","lon":"14.976764"}],"Germany_58":[{"greeter_page":"https://internationalgreeter.org/destinations/kassel","image_url":"https://internationalgreeter.org/wp-content/uploads/2016/02/Germany_Kassel7-768x576.jpg","place_id":"Germany_58","place_name":"Kassel","lat":"51.313457","lon":"9.447944"}],"Germany_59":[{"greeter_page":"https://internationalgreeter.org/destinations/wuppertal","image_url":"https://internationalgreeter.org/wp-content/uploads/2019/03/Schwebebahn_sqare.jpg","place_id":"Germany_59","place_name":"Wuppertal","lat":"51.275083","lon":"7.224487"}],"Germany_60":[{"greeter_page":"https://internationalgreeter.org/destinations/duesseldorf","image_url":"https://internationalgreeter.org/wp-content/uploads/2019/08/Dusseldorf.jpg","place_id":"Germany_60","place_name":"Düsseldorf","lat":"51.222865","lon":"6.79542"}],"Germany_77":[{"greeter_page":"https://internationalgreeter.org/destinations/mainz","image_url":"https://internationalgreeter.org/wp-content/uploads/2017/07/Mainz-768x513.jpg","place_id":"Germany_77","place_name":"Mainz","lat":"50.000435","lon":"8.258504"}],"Germany_81":[{"greeter_page":"https://internationalgreeter.org/destinations/darmstadt","image_url":"https://internationalgreeter.org/wp-content/uploads/2017/05/Darmstadt-768x576.jpg","place_id":"Germany_81","place_name":"Darmstadt","lat":"49.872516","lon":"8.629379"}],"Germany_85":[{"greeter_page":"https://internationalgreeter.org/destinations/mannheim","image_url":"https://internationalgreeter.org/wp-content/uploads/2016/02/Wasserturm-Mannheim.jpg","place_id":"Germany_85","place_name":"Mannheim","lat":"49.479679","lon":"8.469677"}],"Germany_3":[{"greeter_page":"https://internationalgreeter.org/destinations/nuremberg","image_url":"https://internationalgreeter.org/wp-content/uploads/2024/03/greeter-hauptseite.png","place_id":"Germany_3","place_name":"Nuremberg","lat":"49.450748","lon":"11.077955"}],"Germany_90":[{"greeter_page":"https://internationalgreeter.org/destinations/karlsruhe","image_url":"https://internationalgreeter.org/wp-content/uploads/2024/09/20240418_152902XX2X-scaled.jpg","place_id":"Germany_90","place_name":"Karlsruhe","lat":"48.993279","lon":"8.401294"}],"Germany_93":[{"greeter_page":"https://internationalgreeter.org/destinations/stuttgart","image_url":"https://internationalgreeter.org/wp-content/uploads/2022/04/Header-Image-Stuttgart.jpeg","place_id":"Germany_93","place_name":"Stuttgart","lat":"48.829443","lon":"9.16863"}],"Germany_6":[{"greeter_page":"https://internationalgreeter.org/destinations/freiburg","image_url":"https://internationalgreeter.org/wp-content/uploads/2019/03/Freiburg.jpg","place_id":"Germany_6","place_name":"Freiburg","lat":"47.997974","lon":"7.841344"}],"Germany_104":[{"greeter_page":"https://internationalgreeter.org/destinations/constance","image_url":"https://internationalgreeter.org/wp-content/uploads/2024/09/main-image-1-scaled.jpg","place_id":"Germany_104","place_name":"Constance","lat":"47.672084","lon":"9.163411"}],"Germany_99":[{"greeter_page":"https://internationalgreeter.org/destinations/augsburg","image_url":"https://internationalgreeter.org/wp-content/uploads/2021/05/Augsburg.jpeg","place_id":"Germany_99","place_name":"Augsburg","lat":"48.40172","lon":"10.877042"}],"Germany_4":[{"greeter_page":"https://internationalgreeter.org/destinations/munich","image_url":"https://internationalgreeter.org/wp-content/uploads/2021/04/Munich2.jpg","place_id":"Germany_4","place_name":"Munich","lat":"48.140364","lon":"11.558744"}],"estonia_1":[{"greeter_page":"https://internationalgreeter.org/destinations/tallinn","image_url":"https://internationalgreeter.org/wp-content/uploads/2019/10/Tallinn_header.jpg","place_id":"estonia_1","place_name":"Tallinn","lat":"59.437296","lon":"24.744777"}],"netherlands_2":[{"greeter_page":"https://internationalgreeter.org/destinations/rotterdam","image_url":"https://internationalgreeter.org/wp-content/uploads/2020/02/image3.jpg","place_id":"netherlands_2","place_name":"Rotterdam","lat":"51.924804","lon":"4.468771"}],"belgium_1":[{"greeter_page":"https://internationalgreeter.org/destinations/brussels","image_url":"https://internationalgreeter.org/wp-content/uploads/2016/02/Brussels.jpg","place_id":"belgium_1","place_name":"Brussels","lat":"50.835375","lon":"4.335695"}],"belgium_12":[{"greeter_page":"https://internationalgreeter.org/destinations/hasselt","image_url":"https://internationalgreeter.org/wp-content/uploads/2020/06/hasselt-scaled.jpg","place_id":"belgium_12","place_name":"Hasselt","lat":"50.930876","lon":"5.327062"}],"netherlands_8":[{"greeter_page":"https://internationalgreeter.org/destinations/maastricht","image_url":"https://internationalgreeter.org/wp-content/uploads/ninja-forms/7/Maastricht-Discover-3-scaled.jpg","place_id":"netherlands_8","place_name":"Maastricht","lat":"50.849811","lon":"5.705876"}],"austria_1":[{"greeter_page":"https://internationalgreeter.org/destinations/vienna","image_url":"https://internationalgreeter.org/wp-content/uploads/2016/02/ViennaGreetersbannerimage–ViewfromthehillatSchonbrunn.jpg","place_id":"austria_1","place_name":"Vienna","lat":"48.207037","lon":"16.341553"}],"austria_4":[{"greeter_page":"https://internationalgreeter.org/destinations/innsbruck","image_url":"https://internationalgreeter.org/wp-content/uploads/2022/09/Innsbruck_featured-1.jpg","place_id":"austria_4","place_name":"Innsbruck","lat":"47.263331","lon":"11.400506"}],"switzerland_6":[{"greeter_page":"https://internationalgreeter.org/destinations/zurich","image_url":"https://internationalgreeter.org/wp-content/uploads/2019/08/Zurich_Fabrik.jpg","place_id":"switzerland_6","place_name":"Zurich","lat":"47.378968","lon":"8.540534"}],"bulgaria_1":[{"greeter_page":"https://internationalgreeter.org/destinations/sofia","image_url":"https://internationalgreeter.org/wp-content/uploads/2016/02/sofia.png","place_id":"bulgaria_1","place_name":"Sofia","lat":"42.712209","lon":"23.321039"}],"spain_44":[{"greeter_page":"https://internationalgreeter.org/destinations/donostia-san-sebastian","image_url":"https://internationalgreeter.org/wp-content/uploads/2021/04/Donostia-‎San-‎Sebastian.jpg","place_id":"spain_44","place_name":"San Sebastian","lat":"43.317669","lon":"-1.976704"}],"italy_345":[{"greeter_page":"https://internationalgreeter.org/destinations/catania","image_url":"https://internationalgreeter.org/wp-content/uploads/2022/05/catania-imag6.jpeg","place_id":"italy_345","place_name":"Catania","lat":"37.506717","lon":"15.090243"}],"italy_4":[{"greeter_page":"https://internationalgreeter.org/destinations/rome","image_url":"https://internationalgreeter.org/wp-content/uploads/2024/11/IMG_8139.jpeg","place_id":"italy_4","place_name":"Rome","lat":"41.90053448","lon":"12.50187841"}],"italy_22":[{"greeter_page":"https://internationalgreeter.org/destinations/ravenna","image_url":"https://internationalgreeter.org/wp-content/uploads/2022/01/Piazza-del-popolo.jpg","place_id":"italy_22","place_name":"Ravenna","lat":"44.419726","lon":"12.208506"}],"italy_12":[{"greeter_page":"https://internationalgreeter.org/destinations/bologna","image_url":"https://internationalgreeter.org/wp-content/uploads/2021/04/Bologna-a-scaled.jpg","place_id":"italy_12","place_name":"Bologna","lat":"44.496860","lon":"11.343868"}],"italy_25":[{"greeter_page":"https://internationalgreeter.org/destinations/trieste-free-walking-tour","image_url":"https://internationalgreeter.org/wp-content/uploads/2023/09/trieste-oag-italia.jpg","place_id":"italy_25","place_name":"Trieste","lat":"45.657704","lon":"13.772128"}],"italy_1":[{"greeter_page":"https://internationalgreeter.org/destinations/venice","image_url":"https://internationalgreeter.org/wp-content/uploads/2024/10/te-lun-ou-yang-3oQC21AHAV0-unsplash-scaled.jpg","place_id":"italy_1","place_name":"Venice","lat":"45.444427","lon":"12.315491"}],"italy_7":[{"greeter_page":"https://internationalgreeter.org/destinations/milan","image_url":"https://internationalgreeter.org/wp-content/uploads/2020/12/Milan1.jpeg","place_id":"italy_7","place_name":"Milan","lat":"45.462477","lon":"9.207597"}],"france_161":[{"greeter_page":"https://internationalgreeter.org/destinations/nice","image_url":"https://internationalgreeter.org/wp-content/uploads/2016/02/Nice.jpg","place_id":"france_161","place_name":"Nice","lat":"43.704825","lon":"7.261765"}],"france_243":[{"greeter_page":"https://internationalgreeter.org/destinations/cannes","image_url":"https://internationalgreeter.org/wp-content/uploads/2019/11/Croisette©Cannes-is-Yours-Photo-Herve-Fabre-15-scaled.jpg","place_id":"france_243","place_name":"Cannes","lat":"43.553991","lon":"7.019577"}],"france_105":[{"greeter_page":"https://internationalgreeter.org/destinations/marseille","image_url":"https://internationalgreeter.org/wp-content/uploads/2016/02/France-Marseile-Greeters-pic.jpg","place_id":"france_105","place_name":"Marseille","lat":"43.3030300","lon":"5.38055500"}],"france_152":[{"greeter_page":"https://internationalgreeter.org/destinations/avignon","image_url":"https://internationalgreeter.org/wp-content/uploads/2024/07/Avignon.jpg","place_id":"france_152","place_name":"Avignon","lat":"43.941304","lon":"4.805256"}],"france_246":[{"greeter_page":"https://internationalgreeter.org/destinations/valence","image_url":"https://internationalgreeter.org/wp-content/uploads/2021/04/Kiosque-Peynet-©Office-de-Tourisme-de-Valence-Agglo.jpg","place_id":"france_246","place_name":"Valence","lat":"44.927646","lon":"4.893423"}],"france_240":[{"greeter_page":"https://internationalgreeter.org/destinations/grenoble","image_url":"https://internationalgreeter.org/wp-content/uploads/2016/12/©Jessica-Guilpain_Greeters_-20-02-2020-26-scaled.jpg","place_id":"france_240","place_name":"Grenoble","lat":"45.191488","lon":"5.714222"}],"france_93":[{"greeter_page":"https://internationalgreeter.org/destinations/lyon","image_url":"https://internationalgreeter.org/wp-content/uploads/2016/02/France-Lyon-Greeters-pic.jpg","place_id":"france_93","place_name":"Lyon","lat":"45.7605960","lon":"4.85940900"}],"france_169":[{"greeter_page":"https://internationalgreeter.org/destinations/mulhouse","image_url":"https://internationalgreeter.org/wp-content/uploads/2016/02/France-Mulhouse-Greeters-pic.jpg","place_id":"france_169","place_name":"Mulhouse","lat":"47.7417","lon":"7.343"}],"Germany_44":[{"greeter_page":"https://internationalgreeter.org/destinations/vallee-de-munster","image_url":"https://internationalgreeter.org/wp-content/uploads/2016/02/Munster.jpg","place_id":"Germany_44","place_name":"Münster","lat":"51.956585","lon":"7.634739"}],"france_164":[{"greeter_page":"https://internationalgreeter.org/destinations/nancy","image_url":"https://internationalgreeter.org/wp-content/uploads/2016/02/France-Nancy-Greeters-pic.jpg","place_id":"france_164","place_name":"Nancy","lat":"48.689857","lon":"6.174579"}],"france_165":[{"greeter_page":"https://internationalgreeter.org/destinations/metz","image_url":"https://internationalgreeter.org/wp-content/uploads/2024/09/Metz.jpg","place_id":"france_165","place_name":"Metz","lat":"49.107169","lon":"6.17724"}],"france_174":[{"greeter_page":"https://internationalgreeter.org/destinations/roubaix","image_url":"https://internationalgreeter.org/wp-content/uploads/2021/02/Roubaix-1.jpg","place_id":"france_174","place_name":"Roubaix","lat":"50.695544","lon":"3.162955"}],"france_171":[{"greeter_page":"https://internationalgreeter.org/destinations/dunkirk","image_url":"https://internationalgreeter.org/wp-content/uploads/2024/08/Dunkirk.jpg","place_id":"france_171","place_name":"Dunkerque","lat":"51.030304","lon":"2.368379"}],"france_154":[{"greeter_page":"https://internationalgreeter.org/destinations/pas-de-calais","image_url":"https://internationalgreeter.org/wp-content/uploads/2016/02/Jacques-MAHIEU-Cap-Gris-Nez-M08-2013-4©C.-Findinier-Pas-de-Calais-Tourisme-scaled.jpg","place_id":"france_154","place_name":"Pas-de-Calais","lat":"50.715584","lon":"1.610121"}],"france_188":[{"greeter_page":"https://internationalgreeter.org/destinations/lehavre","image_url":"https://internationalgreeter.org/wp-content/uploads/2016/02/LeHavre-©Ludovic-Maisant-OTAH-7.jpg","place_id":"france_188","place_name":"Le Havre","lat":"49.492884","lon":"0.125924"}],"france_251":[{"greeter_page":"https://internationalgreeter.org/destinations/caen","image_url":"https://internationalgreeter.org/wp-content/uploads/2019/08/caen-la-mer-agence-les-conteurs-56.jpg","place_id":"france_251","place_name":"Caen","lat":"49.182334","lon":"-0.366753"}],"france_6":[{"greeter_page":"https://internationalgreeter.org/destinations/rennes","image_url":"https://internationalgreeter.org/wp-content/uploads/2016/02/France-Rennes-Greeters-pic.jpg","place_id":"france_6","place_name":"Rennes","lat":"48.1030710","lon":"-1.6721310"}],"france_197":[{"greeter_page":"https://internationalgreeter.org/destinations/morlaix","image_url":"https://internationalgreeter.org/wp-content/uploads/2023/06/Baie-de-Morlaix_featured_image.jpg","place_id":"france_197","place_name":"Morlaix","lat":"48.577986","lon":"-3.83276"}],"france_206":[{"greeter_page":"https://internationalgreeter.org/destinations/la-baule","image_url":"https://internationalgreeter.org/wp-content/uploads/2016/02/LaBaule.jpg","place_id":"france_206","place_name":"La Baule","lat":"47.288673","lon":"-2.389126"}],"france_204":[{"greeter_page":"https://internationalgreeter.org/destinations/saint-nazaire","image_url":"https://internationalgreeter.org/wp-content/uploads/2021/03/Saint-Nazaire2.jpg","place_id":"france_204","place_name":"Saint-Nazaire","lat":"47.286841","lon":"-2.211543"}],"france_203":[{"greeter_page":"https://internationalgreeter.org/destinations/nantes","image_url":"https://internationalgreeter.org/wp-content/uploads/2016/02/Nantes-scaled.jpg","place_id":"france_203","place_name":"Nantes","lat":"47.217094","lon":"-1.541424"}],"france_259":[{"greeter_page":"https://internationalgreeter.org/destinations/royan","image_url":"https://internationalgreeter.org/wp-content/uploads/2023/06/Royan_featured_image.jpeg","place_id":"france_259","place_name":"Royan","lat":"45.623383","lon":"-1.042884"}],"france_24":[{"greeter_page":"https://internationalgreeter.org/destinations/bordeaux","image_url":"https://internationalgreeter.org/wp-content/uploads/2017/06/Bordeaux.png","place_id":"france_24","place_name":"Bordeaux","lat":"44.8258230","lon":"-0.5560120"}],"france_38":[{"greeter_page":"https://internationalgreeter.org/destinations/toulouse","image_url":"https://internationalgreeter.org/wp-content/uploads/2016/02/Toulouse-eind.jpg","place_id":"france_38","place_name":"Toulouse","lat":"43.6114370","lon":"1.45423700"}],"france_214":[{"greeter_page":"https://internationalgreeter.org/destinations/poitiers","image_url":"https://internationalgreeter.org/wp-content/uploads/2017/06/Poitiers-scaled.jpg","place_id":"france_214","place_name":"Poitiers","lat":"46.582311","lon":"0.332758"}],"france_209":[{"greeter_page":"https://internationalgreeter.org/destinations/angers","image_url":"https://internationalgreeter.org/wp-content/uploads/2016/02/Angers.jpg","place_id":"france_209","place_name":"Angers","lat":"47.46436","lon":"-0.5568"}],"france_98":[{"greeter_page":"https://internationalgreeter.org/destinations/tours-val-de-loire","image_url":"https://internationalgreeter.org/wp-content/uploads/2016/02/France-Tours-Greeters-pic.jpg","place_id":"france_98","place_name":"Tours-Val-de-Loire","lat":"47.389806","lon":"0.694425"}],"france_257":[{"greeter_page":"https://internationalgreeter.org/destinations/blois-chambord","image_url":"https://internationalgreeter.org/wp-content/uploads/2017/07/Blois_copyright-Greeters-Blois-Chambord_vue-sur-Blois-scaled.jpg","place_id":"france_257","place_name":"Blois","lat":"47.586323","lon":"1.335119"}],"france_2":[{"greeter_page":"https://internationalgreeter.org/destinations/versailles","image_url":"https://internationalgreeter.org/wp-content/uploads/2021/04/Versailles-Cathedral-Saint-Louis.jpeg","place_id":"france_2","place_name":"Versailles","lat":"48.7956490","lon":"2.13592400"}],"france_19":[{"greeter_page":"https://internationalgreeter.org/destinations/paris","image_url":"https://internationalgreeter.org/wp-content/uploads/2016/02/Paris-Copyright-PG-scaled.jpg","place_id":"france_19","place_name":"Paris","lat":"48.860078","lon":"2.337852"},{"greeter_page":"https://internationalgreeter.org/destinations/paris-boulogne","image_url":"https://internationalgreeter.org/wp-content/uploads/2016/02/France-ParisBoulogne-Greeters-pic.jpg","place_id":"france_19","place_name":"Paris-Boulogne","lat":"48.860078","lon":"2.337852"},{"greeter_page":"https://internationalgreeter.org/destinations/rueil-malmaison","image_url":"https://internationalgreeter.org/wp-content/uploads/2019/08/Rueil_Greeters.jpg","place_id":"france_19","place_name":"Rueil-Malmaison","lat":"48.860078","lon":"2.337852"},{"greeter_page":"https://internationalgreeter.org/destinations/saint-germain-en-laye","image_url":"https://internationalgreeter.org/wp-content/uploads/2016/02/StGermainenlaye.jpg","place_id":"france_19","place_name":"Saint-Germain-en-Laye","lat":"48.860078","lon":"2.337852"}]}